NORAD_CAT_ID,OBJECT_NAME,OBJECT_TYPE,EPOCH,MEAN_MOTION,ECCENTRICITY,INCLINATION,RA_OF_ASC_NODE,ARG_OF_PERICENTER,MEAN_ANOMALY,BSTAR,MEAN_MOTION_DOT,MEAN_MOTION_DDOT,TLE_LINE0,TLE_LINE1,TLE_LINE2,SEMIMAJOR_AXIS,PERIOD,APOGEE,PERIGEE,DECAYED
53784.0,STARLINK-4687,PAYLOAD,2022-12-26 11:21:07,15.08833286,0.0001653,53.2182,122.9746,23.7048,336.402,5.3167e-05,5.58e-06,0.0,0 STARLINK-4687,1 53784U 22111M   22360.47300169  .00000558  00000-0  53167-4 0  9991,2 53784  53.2182 122.9746 0001653  23.7048 336.4020 15.08833286 17189,6917.901,95.438,540.909,538.622,0.0
53784.0,STARLINK-4687,PAYLOAD,2022-12-26 14:31:53,15.08835061,0.0001955,53.2182,122.3799,36.7085,323.404,4.787899999999999e-05,4.74e-06,0.0,0 STARLINK-4687,1 53784U 22111M   22360.60548331  .00000474  00000-0  47879-4 0  9991,2 53784  53.2182 122.3799 0001955  36.7085 323.4040 15.08835061 16394,6917.895,95.438,541.113,538.408,0.0
53784.0,STARLINK-4687,PAYLOAD,2022-12-27 01:39:34,15.08848403,0.0001854,53.2186,120.2972,38.2303,321.8821,0.00020934,3.046e-05,0.0,0 STARLINK-4687,1 53784U 22111M   22361.06915144  .00003046  00000-0  20934-3 0  9992,2 53784  53.2186 120.2972 0001854  38.2303 321.8821 15.08848403 16467,6917.855,95.437,541.002,538.437,0.0
53784.0,STARLINK-4687,PAYLOAD,2022-12-27 14:22:39,15.08854879,0.0001967,53.2182,117.9198,36.8365,323.2762,0.00038912,5.913e-05,0.0,0 STARLINK-4687,1 53784U 22111M   22361.59906305  .00005913  00000-0  38912-3 0  9999,2 53784  53.2182 117.9198 0001967  36.8365 323.2762 15.08854879 17356,6917.835,95.437,541.061,538.339,0.0
53784.0,STARLINK-4687,PAYLOAD,2022-12-27 17:33:25,15.08858611,0.0002005,53.2176,117.3254,36.0973,324.0155,0.00051964,7.996e-05,0.0,0 STARLINK-4687,1 53784U 22111M   22361.73155012  .00007996  00000-0  51964-3 0  9991,2 53784  53.2176 117.3254 0002005  36.0973 324.0155 15.08858611 17372,6917.824000000001,95.436,541.076,538.3009999999998,0.0
53784.0,STARLINK-4687,PAYLOAD,2022-12-28 11:02:39,15.08859047,0.0001636,53.2178,114.0537,29.575,330.5334,0.00026635,3.956e-05,0.0,0 STARLINK-4687,1 53784U 22111M   22362.46018179  .00003956  00000-0  26635-3 0  9993,2 53784  53.2178 114.0537 0001636  29.5750 330.5334 15.08859047 16678,6917.821999999999,95.436,540.819,538.555,0.0
53784.0,STARLINK-4687,PAYLOAD,2022-12-29 02:56:31,15.08835886,0.000285,53.2153,111.0839,37.2378,322.8812,-0.00027027,-4.587e-05,0.0,0 STARLINK-4687,1 53784U 22111M   22363.12259122 -.00004587  00000-0 -27027-3 0  9991,2 53784  53.2153 111.0839 0002850  37.2378 322.8812 15.08835886 16775,6917.893,95.438,541.73,537.786,0.0
53784.0,STARLINK-4687,PAYLOAD,2022-12-29 09:18:04,15.08824898,0.0002598,53.2166,109.8944,31.1856,328.9290000000001,-0.00041129,-6.826e-05,0.0,0 STARLINK-4687,1 53784U 22111M   22363.38755640 -.00006826  00000-0 -41129-3 0  9992,2 53784  53.2166 109.8944 0002598  31.1856 328.9290 15.08824898 16817,6917.927,95.439,541.589,537.994,0.0
53784.0,STARLINK-4687,PAYLOAD,2022-12-30 04:22:42,15.08844414,0.0002198,53.2174,106.3238,35.7218,324.3921,0.0001250999999999,1.704e-05,0.0,0 STARLINK-4687,1 53784U 22111M   22364.18243428  .00001704  00000-0  12510-3 0  9997,2 53784  53.2174 106.3238 0002198  35.7218 324.3921 15.08844414 16932,6917.8669999999975,95.437,541.252,538.211,0.0
53784.0,STARLINK-4687,PAYLOAD,2022-12-30 13:55:01,15.08864743,0.0002313,53.2173,104.5397,34.0829,326.0311,0.0011945,0.00018787,0.0,0 STARLINK-4687,1 53784U 22111M   22364.57987502  .00018787  00000-0  11945-2 0  9997,2 53784  53.2173 104.5397 0002313  34.0829 326.0311 15.08864743 17802,6917.805,95.436,541.27,538.07,0.0
53784.0,STARLINK-4687,PAYLOAD,2022-12-30 23:27:19,15.08868282,0.0002340999999999,53.2169,102.7549,31.5295,328.5837,0.0007812,0.00012176,0.0,0 STARLINK-4687,1 53784U 22111M   22364.97730991  .00012176  00000-0  78120-3 0  9994,2 53784  53.2169 102.7549 0002341  31.5295 328.5837 15.08868282 17055,6917.794,95.436,541.278,538.039,0.0
53784.0,STARLINK-4687,PAYLOAD,2022-12-31 13:45:46,15.08868608,0.0002365,53.2175,100.0779,31.1251,328.98800000000006,0.00026347,3.911e-05,0.0,0 STARLINK-4687,1 53784U 22111M   22365.57345830  .00003911  00000-0  26347-3 0  9996,2 53784  53.2175 100.0779 0002365  31.1251 328.9880 15.08868608 17955,6917.793000000002,95.436,541.294,538.0219999999998,0.0
53784.0,STARLINK-4687,PAYLOAD,2023-01-01 05:39:38,15.0884362,0.0002952,53.2172,97.1057,47.3487,312.7753,-1.715e-05,-5.62e-06,0.0,0 STARLINK-4687,1 53784U 22111M   23001.23586294 -.00000562  00000-0 -17150-4 0  9992,2 53784  53.2172  97.1057 0002952  47.3487 312.7753 15.08843620 17248,6917.869000000002,95.437,541.776,537.692,0.0
53784.0,STARLINK-4687,PAYLOAD,2023-01-01 10:25:48,15.08819192,0.0002088,53.2174,96.2132,40.7695,319.3453,-0.00054889,-9.008e-05,0.0,0 STARLINK-4687,1 53784U 22111M   23001.43458698 -.00009008  00000-0 -54889-3 0  9993,2 53784  53.2174  96.2132 0002088  40.7695 319.3453 15.08819192 18082,6917.944,95.439,541.253,538.365,0.0
53784.0,STARLINK-4687,PAYLOAD,2023-01-01 18:22:44,15.08817294,0.0002149,53.2177,94.7262,32.6936,327.4189,0.00022974,3.368e-05,0.0,0 STARLINK-4687,1 53784U 22111M   23001.76579403  .00003368  00000-0  22974-3 0  9998,2 53784  53.2177  94.7262 0002149  32.6936 327.4189 15.08817294 18131,6917.95,95.439,541.3009999999998,538.328,0.0
53784.0,STARLINK-4687,PAYLOAD,2023-01-01 23:08:54,15.08819578,0.0002211999999999,53.2178,93.8342,30.8508,329.2614,0.00058225,8.985e-05,0.0,0 STARLINK-4687,1 53784U 22111M   23001.96451752  .00008985  00000-0  58225-3 0  9994,2 53784  53.2178  93.8342 0002212  30.8508 329.2614 15.08819578 17350,6917.943,95.439,541.3380000000002,538.278,0.0
53784.0,STARLINK-4687,PAYLOAD,2023-01-02 13:27:22,15.08835481,0.0002534,53.2169,91.1601,23.2702,336.8405,0.00065682,0.00010179,0.0,0 STARLINK-4687,1 53784U 22111M   23002.56068035  .00010179  00000-0  65682-3 0  9992,2 53784  53.2169  91.1601 0002534  23.2702 336.8405 15.08835481 18251,6917.894,95.438,541.512,538.006,0.0
53784.0,STARLINK-4687,PAYLOAD,2023-01-02 18:13:32,15.08829949,0.0002503,53.2173,90.2679,36.6691,323.4472,0.00026038,3.857e-05,0.0,0 STARLINK-4687,1 53784U 22111M   23002.75940291  .00003857  00000-0  26038-3 0  9993,2 53784  53.2173  90.2679 0002503  36.6691 323.4472 15.08829949 18283,6917.911,95.438,541.508,538.045,0.0
53784.0,STARLINK-4687,PAYLOAD,2023-01-03 11:42:47,15.0883603,0.0002366,53.2178,86.9959,36.2231,323.8921,0.00035927,5.434e-05,0.0,0 STARLINK-4687,1 53784U 22111M   23003.48804785  .00005434  00000-0  35927-3 0  9991,2 53784  53.2178  86.9959 0002366  36.2231 323.8921 15.08836030 17588,6917.893,95.438,541.394,538.121,0.0
53784.0,STARLINK-4687,PAYLOAD,2023-01-04 11:33:34,15.0884692,0.0002559,53.2179,82.5365,39.1089,321.0087,0.000541,8.334e-05,0.0,0 STARLINK-4687,1 53784U 22111M   23004.48164914  .00008334  00000-0  54100-3 0  9991,2 53784  53.2179  82.5365 0002559  39.1089 321.0087 15.08846920 18548,6917.859,95.437,541.495,537.9540000000002,0.0
53784.0,STARLINK-4687,PAYLOAD,2023-01-05 11:24:22,15.08838596,0.0002589,53.2193,78.0737,48.4329,311.6885,0.00022664,3.32e-05,0.0,0 STARLINK-4687,1 53784U 22111M   23005.47525495  .00003320  00000-0  22664-3 0  9996,2 53784  53.2193  78.0737 0002589  48.4329 311.6885 15.08838596 17887,6917.885,95.438,541.5409999999998,537.9590000000002,0.0
53784.0,STARLINK-4687,PAYLOAD,2023-01-05 16:10:31,15.08841431,0.0002358,53.219,77.1835,39.7271,320.3893,0.00023619,3.473e-05,0.0,0 STARLINK-4687,1 53784U 22111M   23005.67397472  .00003473  00000-0  23619-3 0  9990,2 53784  53.2190  77.1835 0002358  39.7271 320.3893 15.08841431 18728,6917.876,95.437,541.372,538.11,0.0
53784.0,STARLINK-4687,PAYLOAD,2023-01-06 14:25:55,15.08850461,0.0002428,53.2168,73.0213,42.2232,317.8946,0.00047317,7.253e-05,0.0,0 STARLINK-4687,1 53784U 22111M   23006.60133251  .00007253  00000-0  47317-3 0  9998,2 53784  53.2168  73.0213 0002428  42.2232 317.8946 15.08850461 18051,6917.848000000001,95.437,541.393,538.034,0.0
53784.0,STARLINK-4687,PAYLOAD,2023-01-07 03:09:01,15.08834661,0.0002115,53.2164,70.641,51.3303,308.7878,5.8431e-05,6.42e-06,0.0,0 STARLINK-4687,1 53784U 22111M   23007.13126170  .00000642  00000-0  58431-4 0  9994,2 53784  53.2164  70.6410 0002115  51.3303 308.7878 15.08834661 18138,6917.897,95.438,541.225,538.299,0.0
53784.0,STARLINK-4687,PAYLOAD,2023-01-07 04:44:24,15.08838098,0.0002097,53.2169,70.3454,50.1952,309.9225,0.00019993,2.895e-05,0.0,0 STARLINK-4687,1 53784U 22111M   23007.19750098  .00002895  00000-0  19993-3 0  9993,2 53784  53.2169  70.3454 0002097  50.1952 309.9225 15.08838098 18951,6917.886,95.438,541.202,538.3009999999998,0.0
53784.0,STARLINK-4687,PAYLOAD,2023-01-07 11:05:56,15.08849126,0.0002113,53.2169,69.1563,49.2284,310.8892,0.00085023,0.00013273,0.0,0 STARLINK-4687,1 53784U 22111M   23007.46246060  .00013273  00000-0  85023-3 0  9991,2 53784  53.2169  69.1563 0002113  49.2284 310.8892 15.08849126 18184,6917.852,95.437,541.179,538.256,0.0
53784.0,STARLINK-4687,PAYLOAD,2023-01-07 20:38:15,15.08849571,0.0002005,53.2166,67.372,52.1154,308.0019,0.0010353,0.00016232,0.0,0 STARLINK-4687,1 53784U 22111M   23007.85990196  .00016232  00000-0  10353-2 0  9991,2 53784  53.2166  67.3720 0002005  52.1154 308.0019 15.08849571 19056,6917.851,95.437,541.1030000000002,538.3290000000002,0.0
53784.0,STARLINK-4687,PAYLOAD,2023-01-08 02:59:47,15.088526500000002,0.0002079,53.2166,66.1833,49.0697,311.0475,0.00085678,0.00013379,0.0,0 STARLINK-4687,1 53784U 22111M   23008.12486092  .00013379  00000-0  85678-3 0  9999,2 53784  53.2166  66.1833 0002079  49.0697 311.0475 15.08852650 18282,6917.842,95.437,541.145,538.269,0.0
53784.0,STARLINK-4687,PAYLOAD,2023-01-08 10:56:43,15.08850647,0.000203,53.2164,64.6963,50.6141,309.503,0.00047543,7.289e-05,0.0,0 STARLINK-4687,1 53784U 22111M   23008.45605946  .00007289  00000-0  47543-3 0  9998,2 53784  53.2164  64.6963 0002030  50.6141 309.5030 15.08850647 19145,6917.848000000001,95.437,541.117,538.309,0.0
